NORAD_CAT_ID,OBJECT_NAME,OBJECT_TYPE,EPOCH,MEAN_MOTION,ECCENTRICITY,INCLINATION,RA_OF_ASC_NODE,ARG_OF_PERICENTER,MEAN_ANOMALY,BSTAR,MEAN_MOTION_DOT,MEAN_MOTION_DDOT,TLE_LINE0,TLE_LINE1,TLE_LINE2,SEMIMAJOR_AXIS,PERIOD,APOGEE,PERIGEE,DECAYED
53413.0,STARLINK-4500,PAYLOAD,2024-02-08 22:22:33,15.08843674,0.0001449,53.2172,284.8067,92.3298,267.786,7.1416e-05,8.49e-06,0.0,0 STARLINK-4500,1 53413U 22097AB  24039.93232794  .00000849  00000-0  71416-4 0  9997,2 53413  53.2172 284.8067 0001449  92.3298 267.7860 15.08843674 83951,6917.869,95.437,540.737,538.732,0.0
53413.0,STARLINK-4500,PAYLOAD,2024-02-09 01:33:19,15.08845941,0.0001432,53.2164,284.2068,95.3124,264.8031,0.00020188,2.927e-05,0.0,0 STARLINK-4500,1 53413U 22097AB  24040.06480574  .00002927  00000-0  20188-3 0  9992,2 53413  53.2164 284.2068 0001432  95.3124 264.8031 15.08845941 83979,6917.862,95.437,540.718,538.737,0.0
53413.0,STARLINK-4500,PAYLOAD,2024-02-09 15:51:47,15.08838849,0.0001262,53.2153,281.5315,101.4024,258.711,0.00013385,1.843e-05,0.0,0 STARLINK-4500,1 53413U 22097AB  24040.66096953  .00001843  00000-0  13385-3 0  9999,2 53413  53.2153 281.5315 0001262 101.4024 258.7110 15.08838849 83576,6917.884,95.438,540.622,538.876,0.0
53413.0,STARLINK-4500,PAYLOAD,2024-02-10 01:24:06,15.08848033,0.00013,53.2149,279.747,122.7912,237.3206,0.00019925,2.885e-05,0.0,0 STARLINK-4500,1 53413U 22097AB  24041.05840478  .00002885  00000-0  19925-3 0  9995,2 53413  53.2149 279.7470 0001300 122.7912 237.3206 15.08848033 83639,6917.856,95.437,540.62,538.822,0.0
53413.0,STARLINK-4500,PAYLOAD,2024-02-10 20:28:44,15.08841818,0.0001587,53.2175,276.179,116.8985,243.217,0.00011222,1.499e-05,0.0,0 STARLINK-4500,1 53413U 22097AB  24041.85328945  .00001499  00000-0  11222-3 0  9995,2 53413  53.2175 276.1790 0001587 116.8985 243.2170 15.08841818 83758,6917.875,95.437,540.838,538.642,0.0
53413.0,STARLINK-4500,PAYLOAD,2024-02-10 22:04:07,15.0884688,0.0001533,53.2179,275.8808,107.7666,252.3493,2.7529e-05,1.5e-06,0.0,0 STARLINK-4500,1 53413U 22097AB  24041.91952797  .00000150  00000-0  27529-4 0  9991,2 53413  53.2179 275.8808 0001533 107.7666 252.3493 15.08846880 84253,6917.859,95.437,540.785,538.664,0.0
53413.0,STARLINK-4500,PAYLOAD,2024-02-11 21:54:53,15.08851238,0.0001455,53.2174,271.4202,111.6754,248.4393,7.3843e-05,8.88e-06,0.0,0 STARLINK-4500,1 53413U 22097AB  24042.91312139  .00000888  00000-0  73843-4 0  9990,2 53413  53.2174 271.4202 0001455 111.6754 248.4393 15.08851238 84408,6917.846,95.437,540.718,538.704,0.0
53413.0,STARLINK-4500,PAYLOAD,2024-02-12 20:10:18,15.08837266,0.0001459,53.2173,267.261,99.33,260.7858,4.8316e-05,4.81e-06,0.0,0 STARLINK-4500,1 53413U 22097AB  24043.84049238  .00000481  00000-0  48316-4 0  9996,2 53413  53.2173 267.2610 0001459  99.3300 260.7858 15.08837266 84055,6917.889,95.438,540.763,538.744,0.0
53413.0,STARLINK-4500,PAYLOAD,2024-02-12 21:45:41,15.08836358,0.000145,53.2173,266.9637,98.3707,261.7449,3.2444e-05,2.28e-06,0.0,0 STARLINK-4500,1 53413U 22097AB  24043.90673241  .00000228  00000-0  32444-4 0  9994,2 53413  53.2173 266.9637 0001450  98.3707 261.7449 15.08836358 84554,6917.892,95.438,540.76,538.753,0.0
53413.0,STARLINK-4500,PAYLOAD,2024-02-13 07:18:00,15.08837712,0.0001288,53.2162,265.1757,89.2758,270.8381,-4.0628e-06,-3.53e-06,0.0,0 STARLINK-4500,1 53413U 22097AB  24044.30417325 -.00000353  00000-0 -40628-5 0  9993,2 53413  53.2162 265.1757 0001288  89.2758 270.8381 15.08837712 84618,6917.887,95.438,540.643,538.861,0.0
53413.0,STARLINK-4500,PAYLOAD,2024-02-13 21:36:28,15.08843803,0.0001234,53.216,262.5002,92.4406,267.6727,2.5086e-05,1.11e-06,0.0,0 STARLINK-4500,1 53413U 22097AB  24044.90032971  .00000111  00000-0  25086-4 0  9999,2 53413  53.2160 262.5002 0001234  92.4406 267.6727 15.08843803 84703,6917.869,95.437,540.587,538.88,0.0
53413.0,STARLINK-4500,PAYLOAD,2024-02-14 13:30:20,15.08835709,0.0001374,53.2167,259.5279,93.7909,266.3241,7.9033e-05,9.7e-06,0.0,0 STARLINK-4500,1 53413U 22097AB  24045.56273398  .00000970  00000-0  79033-4 0  9996,2 53413  53.2167 259.5279 0001374  93.7909 266.3241 15.08835709 84803,6917.894,95.438,540.709,538.808,0.0
53413.0,STARLINK-4500,PAYLOAD,2024-02-14 21:27:15,15.08836563,0.000137,53.2167,258.0411,93.3036,266.8113,7.7636e-05,9.48e-06,0.0,0 STARLINK-4500,1 53413U 22097AB  24045.89393459  .00000948  00000-0  77636-4 0  9995,2 53413  53.2167 258.0411 0001370  93.3036 266.8113 15.08836563 84855,6917.891,95.438,540.704,538.808,0.0
53413.0,STARLINK-4500,PAYLOAD,2024-02-15 06:59:35,15.08833807,0.0001413,53.2152,256.2548,84.4736,275.6417,4.6758e-05,4.56e-06,0.0,0 STARLINK-4500,1 53413U 22097AB  24046.29137832  .00000456  00000-0  46758-4 0  9996,2 53413  53.2152 256.2548 0001413  84.4736 275.6417 15.08833807 84916,6917.899,95.438,540.742,538.787,0.0
53413.0,STARLINK-4500,PAYLOAD,2024-02-15 19:42:40,15.08836669,0.0001396,53.2159,253.8764,86.3572,273.758,-1.0416e-05,-4.54e-06,0.0,0 STARLINK-4500,1 53413U 22097AB  24046.82130084 -.00000454  00000-0 -10416-4 0  9999,2 53413  53.2159 253.8764 0001396  86.3572 273.7580 15.08836669 84509,6917.891,95.438,540.721,538.79,0.0
53413.0,STARLINK-4500,PAYLOAD,2024-02-15 21:18:03,15.08837003,0.0001389,53.2159,253.579,85.5973,274.5178,-7.799e-06,-4.12e-06,0.0,0 STARLINK-4500,1 53413U 22097AB  24046.88754054 -.00000412  00000-0 -77990-5 0  9999,2 53413  53.2159 253.5790 0001389  85.5973 274.5178 15.08837003 85004,6917.89,95.438,540.715,538.794,0.0
53413.0,STARLINK-4500,PAYLOAD,2024-02-16 13:11:54,15.08831249,0.0001508,53.2162,250.6049,87.5352,272.5813,0.00016391,2.321e-05,0.0,0 STARLINK-4500,1 53413U 22097AB  24047.54993971  .00002321  00000-0  16391-3 0  9991,2 53413  53.2162 250.6049 0001508  87.5352 272.5813 15.08831249 85100,6917.907,95.438,540.815,538.729,0.0
53413.0,STARLINK-4500,PAYLOAD,2024-02-16 19:33:26,15.08844107,0.0001444,53.2157,249.4154,85.8925,274.2233,8.1468e-05,1.009e-05,0.0,0 STARLINK-4500,1 53413U 22097AB  24047.81489341  .00001009  00000-0  81468-4 0  9992,2 53413  53.2157 249.4154 0001444  85.8925 274.2233 15.08844107 84654,6917.868,95.437,540.732,538.734,0.0
53413.0,STARLINK-4500,PAYLOAD,2024-02-17 06:41:09,15.08832777,0.0001357,53.2162,247.3343,90.2966,269.8181,0.00022648,3.318e-05,0.0,0 STARLINK-4500,1 53413U 22097AB  24048.27857708  .00003318  00000-0  22648-3 0  9998,2 53413  53.2162 247.3343 0001357  90.2966 269.8181 15.08832777 84725,6917.902,95.438,540.706,538.829,0.0
53413.0,STARLINK-4500,PAYLOAD,2024-02-17 19:24:14,15.08825909,0.0001311,53.2149,244.9549,91.9003,268.2139,0.00029803,4.457e-05,0.0,0 STARLINK-4500,1 53413U 22097AB  24048.80850093  .00004457  00000-0  29803-3 0  9992,2 53413  53.2149 244.9549 0001311  91.9003 268.2139 15.08825909 85299,6917.923,95.438,540.695,538.882,0.0
53413.0,STARLINK-4500,PAYLOAD,2024-02-18 06:31:55,15.0883681,0.0001292,53.2149,242.8738,88.5959,271.5182,0.00017946,2.569e-05,0.0,0 STARLINK-4500,1 53413U 22097AB  24049.27217547  .00002569  00000-0  17946-3 0  9992,2 53413  53.2149 242.8738 0001292  88.5959 271.5182 15.08836810 84877,6917.89,95.438,540.649,538.861,0.0
53413.0,STARLINK-4500,PAYLOAD,2024-02-18 19:15:01,15.08827991,0.0001377,53.2163,240.4935,98.0766,262.0382,0.00021111,3.072e-05,0.0,0 STARLINK-4500,1 53413U 22097AB  24049.80209994  .00003072  00000-0  21111-3 0  9997,2 53413  53.2163 240.4935 0001377  98.0766 262.0382 15.08827991 84958,6917.917,95.438,540.735,538.829,0.0
53413.0,STARLINK-4500,PAYLOAD,2024-02-19 19:05:48,15.08835671,0.0001205,53.2164,236.0363,87.5653,272.5477,1.9116e-05,1.6e-07,0.0,0 STARLINK-4500,1 53413U 22097AB  24050.79569942  .00000016  00000-0  19116-4 0  9997,2 53413  53.2164 236.0363 0001205  87.5653 272.5477 15.08835671 85599,6917.894,95.438,540.592,538.925,0.0
53413.0,STARLINK-4500,PAYLOAD,2024-02-20 12:35:03,15.08835747,0.0001335,53.2167,232.7654,90.7158,269.3987,3.2829e-05,2.35e-06,0.0,0 STARLINK-4500,1 53413U 22097AB  24051.52434044  .00000235  00000-0  32829-4 0  9992,2 53413  53.2167 232.7654 0001335  90.7158 269.3987 15.08835747 85211,6917.893,95.438,540.682,538.835,0.0
53413.0,STARLINK-4500,PAYLOAD,2024-02-20 18:56:35,15.08839569,0.0001339,53.2167,231.5756,90.8905,269.2241,6.3341e-05,7.2e-06,0.0,0 STARLINK-4500,1 53413U 22097AB  24051.78929748  .00000720  00000-0  63341-4 0  9992,2 53413  53.2167 231.5756 0001339  90.8905 269.2241 15.08839569 85742,6917.882,95.438,540.673,538.82,0.0
53413.0,STARLINK-4500,PAYLOAD,2024-02-21 04:28:54,15.08835972,0.0001309,53.2163,229.7909,88.5859,271.5283,5.6193e-05,6.06e-06,0.0,0 STARLINK-4500,1 53413U 22097AB  24052.18674035  .00000606  00000-0  56193-4 0  9993,2 53413  53.2163 229.7909 0001309  88.5859 271.5283 15.08835972 85809,6917.893,95.438,540.663,538.852,0.0
53413.0,STARLINK-4500,PAYLOAD,2024-02-21 18:47:22,15.08836644,0.0001308,53.2164,227.1142,87.1917,272.9225,4.824e-05,4.8e-06,0.0,0 STARLINK-4500,1 53413U 22097AB  24052.78290146  .00000480  00000-0  48240-4 0  9990,2 53413  53.2164 227.1142 0001308  87.1917 272.9225 15.08836644 85404,6917.891,95.438,540.661,538.851,0.0
53413.0,STARLINK-4500,PAYLOAD,2024-02-22 04:19:41,15.08838342,0.0001336,53.2167,225.3299,85.8105,274.304,6.3425e-05,7.22e-06,0.0,0 STARLINK-4500,1 53413U 22097AB  24053.18034026  .00000722  00000-0  63425-4 0  9999,2 53413  53.2167 225.3299 0001336  85.8105 274.3040 15.08838342 85953,6917.885,95.438,540.675,538.826,0.0
53413.0,STARLINK-4500,PAYLOAD,2024-02-22 18:38:09,15.08840053,0.0001364,53.2168,222.6539,89.0611,271.0538,1.3504e-05,-7.3e-07,0.0,0 STARLINK-4500,1 53413U 22097AB  24053.77650160 -.00000073  00000-0  13504-4 0  9990,2 53413  53.2168 222.6539 0001364  89.0611 271.0538 15.08840053 86049,6917.88,95.438,540.689,538.802,0.0
53413.0,STARLINK-4500,PAYLOAD,2024-02-23 20:04:20,15.08840795,0.0001384,53.2171,217.8955,84.9355,275.1795,3.1441e-05,2.12e-06,0.0,0 STARLINK-4500,1 53413U 22097AB  24054.83634300  .00000212  00000-0  31441-4 0  9990,2 53413  53.2171 217.8955 0001384  84.9355 275.1795 15.08840795 85718,6917.878,95.438,540.7,538.786,0.0
